[{"OBJECT_NAME":"ONEWEB-0186","OBJECT_ID":"2021-031V","EPOCH":"2026-03-09T16:58:32.104992","MEAN_MOTION":13.14503345,"ECCENTRICITY":0.00017421,"INCLINATION":87.899,"RA_OF_ASC_NODE":309.5438,"ARG_OF_PERICENTER":78.667,"MEAN_ANOMALY":281.4656,"EPHEMERIS_TYPE":0,"CLASSIFICATION_TYPE":"U","NORAD_CAT_ID":48229,"ELEMENT_SET_NO":999,"REV_AT_EPOCH":23531,"BSTAR":-0.00024146557,"MEAN_MOTION_DOT":-7.7e-7,"MEAN_MOTION_DDOT":0},{"OBJECT_NAME":"METEOR 3-2","OBJECT_ID":"1988-064A","EPOCH":"2026-03-09T23:05:53.953728","MEAN_MOTION":13.17278782,"ECCENTRICITY":0.00183381,"INCLINATION":82.543,"RA_OF_ASC_NODE":41.0373,"ARG_OF_PERICENTER":95.0105,"MEAN_ANOMALY":320.0575,"EPHEMERIS_TYPE":0,"CLASSIFICATION_TYPE":"U","NORAD_CAT_ID":19336,"ELEMENT_SET_NO":999,"REV_AT_EPOCH":80859,"BSTAR":-0.00028263501,"MEAN_MOTION_DOT":-9.7e-7,"MEAN_MOTION_DDOT":0}]
